SPAWAR-CAL-OR           
1 43778U 18099W   26068.67659123  .00011389  00000+0  50868-3 0  9998
2 43778  97.3939 118.6375 0010419 310.1337  49.8986 15.21464282397519
KONDOR-FKA NO. 1        
1 56756U 23074A   26066.42573583  .00007463  00000+0  35188-3 0  9999
2 56756  97.4394 262.4533 0001730  84.6258 275.5174 15.19772289154233
